KUZGTU 1 (RS47S)        
1 57217U 23091AV  26176.86364126  .00015139  00000+0  52169-3 0  9999
2 57217  97.5068 241.4321 0011941  71.0850 289.1683 15.30045663165702
SONATE-2                
1 59112U 24043Q   26176.67505067  .00045415  00000+0  57527-3 0  9996
2 59112  97.5532 327.5956 0007315 167.7602 192.3833 15.59326004129212
MESAT1                  
1 60209U 24125G   26176.55392669  .00070199  00000+0  73655-3 0  9992
2 60209  97.2283  34.2314 0010441 174.3816 185.7563 15.64085809110875
OOV-CUBE (TUBSAT-30)    
1 60240U 24128F   26176.37277780  .00001619  00000+0  13378-3 0  9993
2 60240  61.9924 197.0293 0043615 135.5897 224.8705 15.02800403107349
COLIBRI-S (RS67S)       
1 61746U 24199M   26176.85381532  .00024036  00000+0  45963-3 0  9990
2 61746  97.2988  50.7884 0006583 236.1436 123.9189 15.48059940138750
HORS 3 (RS81S)          
1 61753U 24199U   26176.83993199  .00043371  00000+0  63293-3 0  9993
2 61753  97.2973  52.8558 0004330 227.8709 132.2178 15.55546158138909
HORS 4 (RS82S)          
1 61754U 24199V   26176.83804742  .00055079  00000+0  66757-3 0  9995
2 61754  97.2919  54.1125 0004275 211.4769 148.6233 15.60468413138993
SIT-2086                
1 61764U 24199AF  26176.82868668  .00044261  00000+0  69158-3 0  9991
2 61764  97.2933  53.2910 0005611 210.9733 149.1191 15.53656052135774
HYPERVIEW 1G (RS66S)    
1 61772U 24199AP  26176.75630772  .00176133  00000+0  10128-2 0  9991
2 61772  97.2855  56.9220 0005781 189.2820 170.8341 15.78219824136029
ALTAIR (RS65S)          
1 61779U 24199AW  26176.83546403  .00012997  00000+0  35848-3 0  9998
2 61779  97.3027  46.1298 0010751 274.9408  85.0609 15.37173226138443
ASRTU-1 (AO-123)        
1 61781U 24199AY  26176.83100308  .00008606  00000+0  24892-3 0  9990
2 61781  97.2998  45.4241 0011906 278.5146  81.4749 15.35790552135250
SAMSAT-IONOSPHERE (RS7*)
1 61784U 24199BB  26176.85879569  .00050862  00000+0  66758-3 0  9995
2 61784  97.2940  52.9541 0006527 232.5185 127.5478 15.58361750138918
RTU MIREA 1 (RS51S)     
1 61785U 24199BC  26176.86353513  .00067937  00000+0  77436-3 0  9999
2 61785  97.2927  53.8364 0006462 224.1334 135.9409 15.62007466135828
TEVEL2-4                
1 63213U 25052D   26176.65818006  .00023808  00000+0  70438-3 0  9990
2 63213  97.3901  73.0647 0004949  87.6789 272.5021 15.34890742 71419
TEVEL2-5                
1 63214U 25052E   26176.67964387  .00023328  00000+0  69414-3 0  9996
2 63214  97.3899  73.0315 0004860  88.8974 271.2826 15.34714855 71418
TEVEL2-6                
1 63215U 25052F   26176.69216791  .00022914  00000+0  68269-3 0  9995
2 63215  97.3901  73.0284 0004687  89.3459 270.8321 15.34680036 71417
TEVEL2-1                
1 63217U 25052H   26176.65895124  .00022889  00000+0  69377-3 0  9998
2 63217  97.3881  72.6101 0005000  97.3114 262.8697 15.34133341 71392
TEVEL2-3                
1 63218U 25052J   26176.65328304  .00022765  00000+0  68881-3 0  9992
2 63218  97.3880  72.6267 0004883  97.7388 262.4409 15.34191056 71394
TEVEL2-2                
1 63219U 25052K   26176.65921450  .00022535  00000+0  68291-3 0  9994
2 63219  97.3872  72.6125 0005033  97.8047 262.3767 15.34142651 71393
TEVEL2-9                
1 63237U 25052AD  26176.64763444  .00020846  00000+0  67250-3 0  9997
2 63237  97.3935  71.9581 0008289 107.9116 252.3030 15.32140765 71324
TEVEL2-7                
1 63238U 25052AE  26176.69018330  .00019618  00000+0  63906-3 0  9999
2 63238  97.3941  71.9127 0008379 108.1463 252.0691 15.31840519 71329
TEVEL2-8                
1 63239U 25052AF  26176.69851884  .00019896  00000+0  64837-3 0  9991
2 63239  97.3937  71.8977 0008396 108.9489 251.2663 15.31826021 71324
INNOSAT 16 (RS92S7)     
1 64878U 25155C   26176.85732016  .00006348  00000+0  25276-3 0  9990
2 64878  97.4562 143.9575 0011556 146.7470 213.4496 15.25541331 81995
GEOSCAN 6 (RS92S6)      
1 64879U 25155D   26176.81334464  .00011999  00000+0  41128-3 0  9994
2 64879  97.4552 145.3990 0009311 136.2236 223.9744 15.30301595 82087
GEOSCAN 1 (RS92S1)      
1 64880U 25155E   26176.81240243  .00013373  00000+0  44942-3 0  9992
2 64880  97.4549 145.5536 0009266 136.1293 224.0685 15.30913324 82090
239ALFEROV (RS61S)      
1 64881U 25155F   26176.83485572  .00016401  00000+0  51331-3 0  9996
2 64881  97.4550 146.1669 0008978 134.0617 226.1365 15.33157798 82134
GEOSCAN 2 (RS92S2)      
1 64890U 25155Q   26176.86991253  .00012378  00000+0  41282-3 0  9990
2 64890  97.4548 145.7673 0008924 124.5839 235.6245 15.31182912 82116
GEOSCAN 5 (RS92S5)      
1 64891U 25155R   26176.82209440  .00016328  00000+0  50617-3 0  9998
2 64891  97.4541 146.2949 0007813 137.5159 222.6689 15.33473782 82148
GEOSCAN 4 (RS92S4)      
1 64892U 25155S   26176.87065772  .00016945  00000+0  52253-3 0  9995
2 64892  97.4545 146.3947 0007859 136.9053 223.2806 15.33632962 82154
GEOSCAN 3 (RS92S3)      
1 64893U 25155T   26176.86007606  .00021010  00000+0  60661-3 0  9998
2 64893  97.4533 146.8392 0007836 136.1004 224.0863 15.35668164 82184
