OBJECT_NAME,OBJECT_ID,EPOCH,MEAN_MOTION,ECCENTRICITY,INCLINATION,RA_OF_ASC_NODE,ARG_OF_PERICENTER,MEAN_ANOMALY,EPHEMERIS_TYPE,CLASSIFICATION_TYPE,NORAD_CAT_ID,ELEMENT_SET_NO,REV_AT_EPOCH,BSTAR,MEAN_MOTION_DOT,MEAN_MOTION_DDOT
KUZGTU 1 (RS47S),2023-091AV,2026-06-25T20:43:38.604864,15.30045663,.0011941,97.5068,241.4321,71.0850,289.1683,0,U,57217,999,16570,.52169E-3,.15139E-3,0
SONATE-2,2024-043Q,2026-06-25T16:12:04.377888,15.59326004,.0007315,97.5532,327.5956,167.7602,192.3833,0,U,59112,999,12921,.57527E-3,.45415E-3,0
MESAT1,2024-125G,2026-06-25T13:17:39.266016,15.64085809,.0010441,97.2283,34.2314,174.3816,185.7563,0,U,60209,999,11087,.73655E-3,.70199E-3,0
OOV-CUBE (TUBSAT-30),2024-128F,2026-06-25T08:56:48.001920,15.02800403,.0043615,61.9924,197.0293,135.5897,224.8705,0,U,60240,999,10734,.13378E-3,.1619E-4,0
COLIBRI-S (RS67S),2024-199M,2026-06-25T20:29:29.643648,15.48059940,.0006583,97.2988,50.7884,236.1436,123.9189,0,U,61746,999,13875,.45963E-3,.24036E-3,0
HORS 3 (RS81S),2024-199U,2026-06-25T20:09:30.123936,15.55546158,.000433,97.2973,52.8558,227.8709,132.2178,0,U,61753,999,13890,.63293E-3,.43371E-3,0
HORS 4 (RS82S),2024-199V,2026-06-25T20:06:47.297088,15.60468413,.0004275,97.2919,54.1125,211.4769,148.6233,0,U,61754,999,13899,.66757E-3,.55079E-3,0
SIT-2086,2024-199AF,2026-06-25T19:53:18.529152,15.53656052,.0005611,97.2933,53.2910,210.9733,149.1191,0,U,61764,999,13577,.69158E-3,.44261E-3,0
HYPERVIEW 1G (RS66S),2024-199AP,2026-06-25T18:09:04.987008,15.78219824,.0005781,97.2855,56.9220,189.2820,170.8341,0,U,61772,999,13602,.10128E-2,.176133E-2,0
ALTAIR (RS65S),2024-199AW,2026-06-25T20:03:04.092192,15.37173226,.0010751,97.3027,46.1298,274.9408,85.0609,0,U,61779,999,13844,.35848E-3,.12997E-3,0
ASRTU-1 (AO-123),2024-199AY,2026-06-25T19:56:38.666112,15.35790552,.0011906,97.2998,45.4241,278.5146,81.4749,0,U,61781,999,13525,.24892E-3,.8606E-4,0
SAMSAT-IONOSPHERE (RS75S),2024-199BB,2026-06-25T20:36:39.947616,15.58361750,.0006527,97.2940,52.9541,232.5185,127.5478,0,U,61784,999,13891,.66758E-3,.50862E-3,0
RTU MIREA 1 (RS51S),2024-199BC,2026-06-25T20:43:29.435232,15.62007466,.0006462,97.2927,53.8364,224.1334,135.9409,0,U,61785,999,13582,.77436E-3,.67937E-3,0
TEVEL2-4,2025-052D,2026-06-25T15:47:46.757184,15.34890742,.0004949,97.3901,73.0647,87.6789,272.5021,0,U,63213,999,7141,.70438E-3,.23808E-3,0
TEVEL2-5,2025-052E,2026-06-25T16:18:41.230368,15.34714855,.000486,97.3899,73.0315,88.8974,271.2826,0,U,63214,999,7141,.69414E-3,.23328E-3,0
TEVEL2-6,2025-052F,2026-06-25T16:36:43.307424,15.34680036,.0004687,97.3901,73.0284,89.3459,270.8321,0,U,63215,999,7141,.68269E-3,.22914E-3,0
TEVEL2-1,2025-052H,2026-06-25T15:48:53.387136,15.34133341,.0005,97.3881,72.6101,97.3114,262.8697,0,U,63217,999,7139,.69377E-3,.22889E-3,0
TEVEL2-3,2025-052J,2026-06-25T15:40:43.654656,15.34191056,.0004883,97.3880,72.6267,97.7388,262.4409,0,U,63218,999,7139,.68881E-3,.22765E-3,0
TEVEL2-2,2025-052K,2026-06-25T15:49:16.132800,15.34142651,.0005033,97.3872,72.6125,97.8047,262.3767,0,U,63219,999,7139,.68291E-3,.22535E-3,0
TEVEL2-9,2025-052AD,2026-06-25T15:32:35.615616,15.32140765,.0008289,97.3935,71.9581,107.9116,252.3030,0,U,63237,999,7132,.6725E-3,.20846E-3,0
TEVEL2-7,2025-052AE,2026-06-25T16:33:51.837120,15.31840519,.0008379,97.3941,71.9127,108.1463,252.0691,0,U,63238,999,7132,.63906E-3,.19618E-3,0
TEVEL2-8,2025-052AF,2026-06-25T16:45:52.027776,15.31826021,.0008396,97.3937,71.8977,108.9489,251.2663,0,U,63239,999,7132,.64837E-3,.19896E-3,0
INNOSAT 16 (RS92S7),2025-155C,2026-06-25T20:34:32.461824,15.25541331,.0011556,97.4562,143.9575,146.7470,213.4496,0,U,64878,999,8199,.25276E-3,.6348E-4,0
GEOSCAN 6 (RS92S6),2025-155D,2026-06-25T19:31:12.976896,15.30301595,.0009311,97.4552,145.3990,136.2236,223.9744,0,U,64879,999,8208,.41128E-3,.11999E-3,0
GEOSCAN 1 (RS92S1),2025-155E,2026-06-25T19:29:51.569952,15.30913324,.0009266,97.4549,145.5536,136.1293,224.0685,0,U,64880,999,8209,.44942E-3,.13373E-3,0
239ALFEROV (RS61S),2025-155F,2026-06-25T20:02:11.534208,15.33157798,.0008978,97.4550,146.1669,134.0617,226.1365,0,U,64881,999,8213,.51331E-3,.16401E-3,0
GEOSCAN 2 (RS92S2),2025-155Q,2026-06-25T20:52:40.442592,15.31182912,.0008924,97.4548,145.7673,124.5839,235.6245,0,U,64890,999,8211,.41282E-3,.12378E-3,0
GEOSCAN 5 (RS92S5),2025-155R,2026-06-25T19:43:48.956160,15.33473782,.0007813,97.4541,146.2949,137.5159,222.6689,0,U,64891,999,8214,.50617E-3,.16328E-3,0
GEOSCAN 4 (RS92S4),2025-155S,2026-06-25T20:53:44.827008,15.33632962,.0007859,97.4545,146.3947,136.9053,223.2806,0,U,64892,999,8215,.52253E-3,.16945E-3,0
GEOSCAN 3 (RS92S3),2025-155T,2026-06-25T20:38:30.571584,15.35668164,.0007836,97.4533,146.8392,136.1004,224.0863,0,U,64893,999,8218,.60661E-3,.2101E-3,0
